     2.100          NAVIGATION                              RINEX VERSION / TYPE
fic2rin                                 03/10/2017 00:25:03 PGM / RUN BY / DATE
                                                            END OF HEADER
 5 17  3 10  0  0  0.0 -.566192902625D-04  .193267624127D-11  .000000000000D+00
     .430000000000D+02 -.728125000000D+01  .452054544172D-08  .257897638892D+01
    -.368803739548D-06  .491555978078D-02  .118147581816D-04  .515370686531D+04
     .432000000000D+06 -.242143869400D-07  .118895141260D-01 -.987201929092D-07
     .947203585574D+00  .146187500000D+03  .550397348202D+00 -.794783105907D-08
     .335371112410D-09  .100000000000D+01  .193900000000D+04  .000000000000D+00
     .240000000000D+01  .000000000000D+00 -.107102096081D-07  .430000000000D+02
     .424806000000D+06  .400000000000D+01
 6 17  3 10  0  0  0.0  .322511419654D-03  .500222085975D-11  .000000000000D+00
     .200000000000D+02 -.111312500000D+03  .440054044303D-08 -.132105907404D+00
    -.576302409172D-05  .740740913898D-03  .648014247417D-05  .515363278770D+04
     .432000000000D+06 -.707805156708D-07 -.102273179458D+01 -.484287738800D-07
     .966396579234D+00  .259875000000D+03 -.127155390430D+01 -.811605235187D-08
    -.423589072757D-09  .100000000000D+01  .193900000000D+04  .000000000000D+00
     .240000000000D+01  .000000000000D+00  .419095158577D-08  .200000000000D+02
     .424806000000D+06  .400000000000D+01
 7 17  3 10  0  0  0.0  .374861061573D-03 -.397903932026D-11  .000000000000D+00
     .470000000000D+02 -.402500000000D+02  .463983612494D-08 -.967734670902D+00
    -.204145908356D-05  .102102487581D-01  .871345400810D-05  .515359776306D+04
     .432000000000D+06  .236555933952D-06  .214337694782D+01  .931322574615D-08
     .962922442842D+00  .209250000000D+03 -.261577702948D+01 -.809926593836D-08
    -.505378193887D-09  .100000000000D+01  .193900000000D+04  .000000000000D+00
     .240000000000D+01  .000000000000D+00 -.111758708954D-07  .470000000000D+02
     .424806000000D+06  .400000000000D+01
 8 17  3 10  0  0  0.0 -.522192567587D-04 -.136424205266D-11  .000000000000D+00
     .220000000000D+02  .505937500000D+02  .489198948528D-08  .239930781536D+01
     .286288559437D-05  .257176859304D-02  .201351940632D-05  .515359702110D+04
     .432000000000D+06  .707805156708D-07 -.207736863433D+01  .204890966415D-07
     .965853115408D+00  .341593750000D+03 -.813865652451D+00 -.855678499587D-08
     .136077096729D-09  .100000000000D+01  .193900000000D+04  .000000000000D+00
     .240000000000D+01  .000000000000D+00  .465661287308D-08  .220000000000D+02
     .424806000000D+06  .400000000000D+01
10 17  3 10  0  0  0.0 -.963569618762D-04  .534328137292D-11  .000000000000D+00
     .450000000000D+02  .115625000000D+01  .413695803519D-08 -.249856144252D+01
     .111758708954D-07  .230026606005D-02  .127777457237D-04  .515368192291D+04
     .432000000000D+06 -.614672899246D-07  .238845031826D-01  .875443220139D-07
     .960409295874D+00  .134968750000D+03 -.285140449295D+01 -.773782231136D-08
     .440732643998D-09  .100000000000D+01  .193900000000D+04  .000000000000D+00
     .240000000000D+01  .000000000000D+00  .232830643654D-08  .450000000000D+02
     .424806000000D+06  .400000000000D+01
11 17  3 10  0  0  0.0 -.674013979733D-03 -.216004991671D-11  .000000000000D+00
     .500000000000D+02 -.863125000000D+02  .643598237021D-08 -.967086640618D+00
    -.426359474659D-05  .166314748349D-01  .256299972534D-05  .515369828224D+04
     .432000000000D+06 -.271946191788D-06 -.141151987305D+01  .165775418282D-06
     .899622058013D+00  .297093750000D+03  .162355036549D+01 -.953968308038D-08
    -.312870175156D-09  .100000000000D+01  .193900000000D+04  .000000000000D+00
     .240000000000D+01  .000000000000D+00 -.121071934700D-07  .500000000000D+02
     .424806000000D+06  .400000000000D+01
12 17  3 10  0  0  0.0  .387237407267D-03 -.454747350886D-12  .000000000000D+00
     .360000000000D+02  .821250000000D+02  .378658629795D-08 -.157791506757D+01
     .429712235928D-05  .652375479694D-02  .105444341898D-04  .515357592583D+04
     .432000000000D+06  .108033418655D-06 -.305770432127D+01 -.149011611938D-07
     .989923720788D+00  .193187500000D+03  .805506620470D+00 -.759745932182D-08
     .209651589973D-09  .100000000000D+01  .193900000000D+04  .000000000000D+00
     .240000000000D+01  .000000000000D+00 -.121071934700D-07  .360000000000D+02
     .424806000000D+06  .400000000000D+01
13 17  3 10  0  0  0.0 -.731502659619D-04 -.159161572810D-11  .000000000000D+00
     .760000000000D+02  .179375000000D+02  .477662753714D-08  .538789539433D-01
     .808387994766D-06  .401532941032D-02  .460632145405D-05  .515367950249D+04
     .432000000000D+06  .186264514923D-08  .118939388534D+01 -.130385160446D-07
     .969691456959D+00  .294218750000D+03  .184298208820D+01 -.834499045949D-08
     .225723688012D-09  .100000000000D+01  .193900000000D+04  .000000000000D+00
     .240000000000D+01  .000000000000D+00 -.111758708954D-07  .760000000000D+02
     .424806000000D+06  .400000000000D+01
14 17  3 10  0  0  0.0 -.620777718723D-04 -.159161572810D-11  .000000000000D+00
     .290000000000D+02  .225937500000D+02  .494663461862D-08  .140808363355D+01
     .117160379887D-05  .876820948906D-02  .491738319397D-05  .515362220001D+04
     .432000000000D+06 -.217929482460D-06  .115044839622D+01 -.689178705215D-07
     .962234853790D+00  .283750000000D+03 -.195876465912D+01 -.841856495274D-08
     .238938524177D-09  .100000000000D+01  .193900000000D+04  .000000000000D+00
     .240000000000D+01  .000000000000D+00 -.931322574615D-08  .290000000000D+02
     .424806000000D+06  .400000000000D+01
15 17  3 10  0  0  0.0 -.345177017152D-03 -.909494701773D-12  .000000000000D+00
     .540000000000D+02  .400312500000D+02  .562987736413D-08  .920230423451D+00
     .216625630856D-05  .908369501121D-02  .503845512867D-05  .515375241280D+04
     .432000000000D+06 -.465661287308D-07  .100462340107D+01  .104308128357D-06
     .929353992513D+00  .265375000000D+03  .575779872183D+00 -.878750889216D-08
     .252510518077D-09  .100000000000D+01  .193900000000D+04  .000000000000D+00
     .240000000000D+01  .000000000000D+00 -.107102096081D-07  .540000000000D+02
     .424806000000D+06  .400000000000D+01
16 17  3 10  0  0  0.0  .284654088318D-04  .102318153949D-11  .000000000000D+00
     .620000000000D+02  .103937500000D+03  .370444001908D-08  .273436871910D+01
     .530667603016D-05  .925889366772D-02  .113938003778D-04  .515366794205D+04
     .432000000000D+06 -.968575477600D-07 -.303887766132D+01 -.949949026108D-07
     .990405367548D+00  .175812500000D+03  .408141061239D+00 -.751174146561D-08
     .218580533328D-09  .100000000000D+01  .193900000000D+04  .000000000000D+00
     .240000000000D+01  .000000000000D+00 -.107102096081D-07  .620000000000D+02
     .424806000000D+06  .400000000000D+01
17 17  3 10  0  0  0.0 -.188531819731D-03  .147792889038D-11  .000000000000D+00
     .420000000000D+02  .405937500000D+02  .450590197462D-08  .170880059701D+01
     .175088644028D-05  .116713455645D-01  .257045030594D-05  .515358771133D+04
     .432000000000D+06 -.109896063805D-06 -.202086329917D+01 -.227242708206D-06
     .979022941790D+00  .340375000000D+03 -.185577531997D+01 -.829891711178D-08
     .105718689322D-09  .100000000000D+01  .193900000000D+04  .000000000000D+00
     .340000000000D+01  .000000000000D+00 -.107102096081D-07  .420000000000D+02
     .424806000000D+06  .400000000000D+01
18 17  3 10  0  0  0.0  .603653956205D-03  .238742359215D-11  .000000000000D+00
     .400000000000D+02 -.646875000000D+01  .475555523082D-08 -.304083697968D+01
    -.415369868279D-06  .177304336103D-01  .124815851450D-04  .515375487137D+04
     .432000000000D+06  .124797224998D-06 -.153858576142D-01 -.651925802231D-07
     .925958801032D+00  .115562500000D+03 -.182555194593D+01 -.778996734055D-08
     .381444460121D-09  .100000000000D+01  .193900000000D+04  .000000000000D+00
     .240000000000D+01  .000000000000D+00 -.111758708954D-07  .400000000000D+02
     .424806000000D+06  .400000000000D+01
19 17  3 10  0  0  0.0 -.510937534273D-03  .113686837722D-11  .000000000000D+00
     .150000000000D+02  .329062500000D+02  .454626079858D-08 -.141911618489D+01
     .185146927834D-05  .101837085094D-01  .176765024662D-05  .515365127182D+04
     .432000000000D+06  .232830643654D-06 -.197281141419D+01  .800937414169D-07
     .976222040298D+00  .351625000000D+03  .926406892840D+00 -.829855995405D-08
     .128219626576D-09  .100000000000D+01  .193900000000D+04  .000000000000D+00
     .240000000000D+01  .000000000000D+00 -.153668224812D-07  .150000000000D+02
     .424806000000D+06  .400000000000D+01
20 17  3 10  0  0  0.0  .463374890387D-03  .159161572810D-11  .000000000000D+00
     .470000000000D+02 -.161562500000D+02  .499985112101D-08  .863772674090D+00
    -.886619091034D-06  .451513112057D-02  .120978802443D-04  .515364715195D+04
     .432000000000D+06 -.167638063431D-07 -.668019509351D-01 -.115483999252D-06
     .927290202776D+00  .133312500000D+03  .156397028521D+01 -.826177270742D-08
     .187150652719D-09  .100000000000D+01  .193900000000D+04  .000000000000D+00
     .240000000000D+01  .000000000000D+00 -.838190317154D-08  .470000000000D+02
     .424806000000D+06  .400000000000D+01
21 17  3 10  0  0  0.0 -.518093816936D-03  .170530256582D-11  .000000000000D+00
     .470000000000D+02 -.109312500000D+03  .484341603343D-08 -.214064234870D+01
    -.555999577045D-05  .239777863026D-01  .582076609135D-05  .515372644615D+04
     .432000000000D+06  .325962901115D-06 -.105609057949D+01  .838190317154D-07
     .938824157589D+00  .246562500000D+03 -.169886829465D+01 -.802069123684D-08
    -.315727437029D-09  .100000000000D+01  .193900000000D+04  .000000000000D+00
     .240000000000D+01  .000000000000D+00 -.977888703346D-08  .470000000000D+02
     .424806000000D+06  .400000000000D+01
